#dP2021 12  4  0  0  0.00000000      96 __u+U ITR00 FIT  IAC
## 2186 518400.00000000   900.00000000 59552 0.0000000000000
+  112   C06C07C08C09C10C11C12C13C14C16C19C20C21C22C23C24C25
+        C26C27C28C29C30C32C33C34C35C36C37C38C39C40C41C42C43
+        C44C45C46E01E02E03E04E05E07E08E09E11E12E13E14E15E18
+        E19E21E24E25E26E27E30E31E33E36G01G02G03G04G05G06G07
+        G08G09G10G12G13G14G15G16G17G18G19G20G21G22G23G24G25
+        G26G27G28G30G31G32R01R02R03R04R05R07R08R09R11R12R13
+        R14R15R16R17R18R19R20R21R22R24  0  0  0  0  0  0  0
++         6  8  9  8  7  6  7 12  8  7  7  7  7  7  7  8  6
++         7  7  7  6  8  8  6  7  5  6  8  9  8  7  7  7  7
++         9  6  6  7  7  7  6  7  7  5  7  7  8  5  8  6  5
++         8  7  9  8  7  7  6  9  8  6  6  7  7  6  6  6  7
++         6  6  7  7  6  6  6  6  5  7  8  5  6  5  7  8  7
++         6  6  7  6  7  6  7  6  8  8  7  6  6  5  6  5  5
++         7  7  8  7  9  8  6  7  8  7  0  0  0  0  0  0  0
%c M  cc GPS ccc cccc cccc cccc cccc ccccc ccccc ccccc ccccc
%c cc cc ccc ccc cccc cccc cccc cccc ccccc ccccc ccccc ccccc
%f  0.0000000  0.000000000  0.00000000000  0.000000000000000
%f  0.0000000  0.000000000  0.00000000000  0.000000000000000
%i    0    0    0    0      0      0      0      0         0
%i    0    0    0    0      0      0      0      0         0
/* INFORMATION & ANALYSIS CENTER (IAC)      ULTRA-RAPID DATA
/* S/V CLOCKS ARE ALIGNED TO GNSS TIME                      
/* G:C1WC2W R:C1PC2P E:C1XC5X C:C2IC6I J:C1CC2S             
/* PCV:IGS14_2178 OL/AL:FES2004  NONE     YN ORB:CoN CLK:CoN
*  2021 12 04 21 30  0.00000000
PC06 -17377.491754  32619.032600 -20491.331650    586.124838
PC07  -4398.555142  38364.713628 -16805.864998    160.476247
PC08  -3467.246485  21039.472656  36399.033443    -50.297084
PC09 -12450.084312  31326.719703 -25298.112940   -321.332366
PC10   2452.947913  40641.987096  -9776.187125    136.273646
PC11   9875.817823  11774.455213  23364.811935   -353.144677
PC12  -8151.256163  20378.071765  17264.856274   -423.627867
PC13   2039.303940  23813.032238  34897.908103   -188.148813
PC14  11369.693979  22640.843456 -11629.841764    508.895130
PC16 -22234.394334  32210.685211 -15860.200696     12.588428
PC19 -15052.436995 -14263.013963  18696.531145    926.832247
PC20  -6900.012952 -26683.368321   4451.542722   -792.704858
PC21  -5937.926571  23783.574979  13331.966299   -943.376489
PC22 -14803.580346   6852.859426  22633.178974   -969.308048
PC23  24118.393095   -925.570229  14020.165348   -963.169059
PC24  10436.338237  18420.849168 -18206.083496   -954.478000
PC25  25376.412179  11430.233664  -2226.894988   -814.864773
PC26  -8110.828289  14205.386542 -22616.623560    812.486880
PC27  16050.261984 -20606.440149  -9821.910608    639.999240
PC28  24202.105247 -11546.595644   7746.022424      5.070580
PC29 -18240.217603  -3716.040919 -20792.554565    483.220133
PC30  -1483.833585 -17898.689859 -21354.464534    487.949577
PC32   5789.774537 -23802.090658 -13361.116069   -958.064650
PC33  15124.607573  14260.989387 -18615.335816   -964.042363
PC34   2343.248708  17483.166749  21622.874487   -522.066717
PC35 -23844.381840  11980.754454  -8222.326063     31.111940
PC36 -24908.856707 -12283.083684   2686.283975   -822.402778
PC37   9604.608892 -13448.292002  22503.584684   -905.006807
PC38 -14293.519204  19472.501332  34558.525189    194.254292
PC39 -24097.189241  32906.356079 -11040.391635     34.233235
PC40  -9038.016989  34910.147074 -21739.069326    223.634128
PC41  14906.363272  -6469.378718 -22642.848950   -915.567900
PC42   6339.169840  26939.610634  -3504.803552   -936.242815
PC43  17864.802213   4430.018583  20965.906008   -956.509153
PC44 -15493.260860  21167.287746   9561.101687    487.504955
PC45 -23964.725577   1053.309727 -14233.021744    618.322064
PC46 -11727.146874 -18262.139863  17519.519911    -43.296132
PE01  13225.672007 -10018.309180  24518.382206   -531.094717
PE02 -13085.937722  10187.039262 -24515.903371    264.692698
PE03 -16933.124012  21173.854967  11858.841047   -502.933300
PE04   5961.189086 -28316.845975   6216.866980   -913.789773
PE05 -18170.930360   1455.937698  23314.757012   -228.944364
PE07   8811.623690  18855.930949 -21048.272412   -614.107194
PE08  -5577.520186  28300.388287  -6635.241845   5894.227455
PE09  -8897.100278 -18611.852316  21225.403050   5441.103467
PE11 -17001.569598 -11274.842266 -21452.459943   4957.175323
PE12   5578.475685 -16679.815944 -23802.056350   4877.115781
PE13  16442.522672  11454.021826  21794.863435    424.358495
PE14  16418.998282 -24275.342098    820.685042  -1663.268471
PE15  -5653.866460  16632.773815  23833.356761    777.162311
PE18 -20967.492492  13782.058410 -11838.972645  -1829.072298
PE19  17670.968432 -19231.710232 -13927.513785    444.031289
PE21  22242.686496   8265.976148  17705.123326   -703.394411
PE24 -18225.890283 -23290.536642    741.129815  -1262.112107
PE25 -22273.047155  -8484.996251 -17535.081529   -555.785010
PE26  28991.783128   -967.639994   5929.105253   -532.004760
PE27  18931.550293  22764.416832    359.154429   -179.570434
PE30   3340.186911  23393.033708 -17845.638675    -83.395483
PE31  -4486.566976 -23754.351408  17085.665811   -488.930847
PE33  24355.078130 -11980.963667 -11801.753125   -461.807429
PE36 -28768.931434    439.041770  -6943.125799   -299.303896
PG01 -11740.276848 -13315.060889 -20141.813740    492.840635
PG02 -11771.094997  14609.553947  19502.891034   -644.538841
PG03 -12700.202250 -23350.390789  -1480.046723    -31.583621
PG04  -4437.593380 -18134.516709  18862.180842   -200.079570
PG05   1971.736919  21897.765078  14627.897351    -63.300679
PG06 -24421.996743   5987.116091   8715.510690    134.300970
PG07 -24363.489009  -6575.867433   9418.232857    286.807817
PG08   4175.352584 -23712.364349 -10847.241289    -46.804669
PG09 -13451.230933  -7380.587381  21604.902511   -360.981911
PG10  17309.136152   2386.879902 -19963.107383   -261.116330
PG12   9757.339370  24585.143598  -3374.633963   -135.983791
PG13 -12303.926614  22802.504030  -5607.634624    224.519587
PG14 -17459.537141  -2792.794459 -19838.004691    -49.777265
PG15   -610.892422  23995.890605 -11407.111322   -101.590158
PG16   2941.785187 -20105.824729  16594.583491   -435.120453
PG17 -18349.094324   6761.898104 -17547.476295    542.931158
PG18  24647.431071   5807.385714   8177.884315    285.024004
PG19 -19495.222038  13582.597158 -11951.977943     87.915199
PG20  -6358.912936  15744.526077  20464.871132    517.796226
PG21  -2447.318880 -14764.340328 -21272.764712    152.868520
PG22  -8718.756209 -23273.295295  -9486.537020   -449.143663
PG23  19026.110605  13258.484622 -13047.900546     25.477195
PG24   7548.991545  14907.824307 -20995.449110    272.681180
PG25  17046.888267  19371.390183   6613.896756    250.780221
PG26  12487.614995  -9430.186346  21385.026723    161.832651
PG27  12010.269635 -23421.768849  -1413.549563   -227.136486
PG28 -13894.754654   5065.955510 -21520.212258    449.708229
PG30 -26671.204848    414.996825   -868.819106   -496.748089
PG31  23592.828922  -7079.833360  10413.884401   -153.437794
PG32  18440.939021 -10925.349047 -15449.286092    -30.625735
PR01 -10797.820214  -4554.132365  22651.822984     89.024781
PR02  -8988.302998  16680.485362  17148.217359    502.232375
PR03  -1872.113048  25432.930501   1447.398146     47.578070
PR04   5993.734155  19815.037978 -14893.393072    117.311961
PR05  10590.982518   3322.819919 -22964.168546     83.630837
PR07   1513.569105 -25426.884973   -635.958087    -39.476706
PR08  -6196.394523 -19691.021897  15012.223679    -62.364493
PR09  12517.816500  -4848.579110  21692.993025     27.029077
PR11 -18153.878250 -15857.357232   8371.030339     49.417220
PR12 -21946.751024  -8251.532858  -9991.448526    283.836411
PR13 -13261.060730   3863.098054 -21458.658225    -64.397406
PR14   4165.923708  14398.462817 -20625.196889     71.711944
PR15  18333.159937  15998.591071  -7643.816765     99.804059
PR16  21987.782243   6874.237743  11080.117577    -26.186430
PR17  -9090.636960  14347.912457  19026.911809    480.689795
PR18   7599.344091   7779.927487  23090.025529     99.392999
PR19  20021.010263  -1706.563601  15724.929312   -169.467741
PR20  22145.026997 -12109.855404  -3545.379055    -60.592997
PR21   7953.381725 -13995.973035 -19792.034658   -259.686956
PR22  -8581.288459  -7173.968790 -22941.444268   -149.358869
PR24 -21584.611843  12892.469101   4271.649964     69.774569
EOF
